Satellite: MET-3/5
Catalog number: 21655
Epoch time:      09126.97395975
Element set:    0596
Inclination:      082.5485 deg
RA of node:       235.6006 deg
Eccentricity:    0.0012582
Arg of perigee:   287.4341 deg
Mean anomaly:     072.5405 deg
Mean motion:   13.17018674 rev/day
Decay rate:        5.1e-07 rev/day^2
Epoch rev:           85220
Checksum:              315

Satellite: MET-2/21
Catalog number: 22782
Epoch time:      09126.74328370
Element set:    0451
Inclination:      082.5495 deg
RA of node:       214.8765 deg
Eccentricity:    0.0024052
Arg of perigee:   102.3790 deg
Mean anomaly:     258.0069 deg
Mean motion:   13.83636589 rev/day
Decay rate:       -3.6e-07 rev/day^2
Epoch rev:           79187
Checksum:              324

Satellite: OKEAN-4
Catalog number: 23317
Epoch time:      09126.86560058
Element set:     900
Inclination:      082.5420 deg
RA of node:       013.0510 deg
Eccentricity:    0.0023150
Arg of perigee:   137.3503 deg
Mean anomaly:     222.9502 deg
Mean motion:   14.82693014 rev/day
Decay rate:       1.40e-06 rev/day^2
Epoch rev:           78624
Checksum:              251

Satellite: NOAA-14
Catalog number: 23455
Epoch time:      09127.75951992
Element set:     608
Inclination:      098.9102 deg
RA of node:       205.5755 deg
Eccentricity:    0.0008685
Arg of perigee:   309.1524 deg
Mean anomaly:     050.9358 deg
Mean motion:   14.13761981 rev/day
Decay rate:       -1.5e-07 rev/day^2
Epoch rev:           74030
Checksum:              316

Satellite: NOAA-15
Catalog number: 25338
Epoch time:      09126.82967476
Element set:    0916
Inclination:      098.5825 deg
RA of node:       116.9488 deg
Eccentricity:    0.0010907
Arg of perigee:   172.6547 deg
Mean anomaly:     187.4750 deg
Mean motion:   14.24756762 rev/day
Decay rate:       -4.8e-07 rev/day^2
Epoch rev:           57088
Checksum:              361

Satellite: RESURS
Catalog number: 25394
Epoch time:      09126.70921083
Element set:    0218
Inclination:      098.3464 deg
RA of node:       161.1647 deg
Eccentricity:    0.0001762
Arg of perigee:   009.5589 deg
Mean anomaly:     350.5620 deg
Mean motion:   14.24181878 rev/day
Decay rate:       -4.3e-07 rev/day^2
Epoch rev:           56249
Checksum:              303

Satellite: FENGYUN1
Catalog number: 25730
Epoch time:      09126.92233437
Element set:    0799
Inclination:      098.7537 deg
RA of node:       098.3238 deg
Eccentricity:    0.0022142
Arg of perigee:   340.4657 deg
Mean anomaly:     019.5663 deg
Mean motion:   14.07958594 rev/day
Decay rate:      -4.10e-06 rev/day^2
Epoch rev:           51451
Checksum:              319

Satellite: OKEAN-0
Catalog number: 25860
Epoch time:      09127.76897581
Element set:     670
Inclination:      097.7834 deg
RA of node:       110.5628 deg
Eccentricity:    0.0001012
Arg of perigee:   042.5563 deg
Mean anomaly:     317.5723 deg
Mean motion:   14.73571118 rev/day
Decay rate:        4.2e-07 rev/day^2
Epoch rev:           52719
Checksum:              301

Satellite: NOAA-16
Catalog number: 26536
Epoch time:      09126.78333732
Element set:    0392
Inclination:      099.1761 deg
RA of node:       129.4493 deg
Eccentricity:    0.0011138
Arg of perigee:   042.2095 deg
Mean anomaly:     317.9946 deg
Mean motion:   14.12516280 rev/day
Decay rate:        6.1e-07 rev/day^2
Epoch rev:           44445
Checksum:              306

Satellite: NOAA-17
Catalog number: 27453
Epoch time:      09126.68678004
Element set:    0402
Inclination:      098.4878 deg
RA of node:       187.1798 deg
Eccentricity:    0.0010793
Arg of perigee:   241.7599 deg
Mean anomaly:     118.2486 deg
Mean motion:   14.24060977 rev/day
Decay rate:       1.54e-06 rev/day^2
Epoch rev:           35684
Checksum:              350

Satellite: NOAA-18
Catalog number: 28654
Epoch time:      09126.71356457
Element set:    0889
Inclination:      098.9043 deg
RA of node:       070.2787 deg
Eccentricity:    0.0015268
Arg of perigee:   118.1881 deg
Mean anomaly:     242.0837 deg
Mean motion:   14.11253356 rev/day
Decay rate:      -1.59e-06 rev/day^2
Epoch rev:           20410
Checksum:              319

Satellite: NOAA-19
Catalog number: 33591
Epoch time:      09126.68464308
Element set:    0094
Inclination:      098.7442 deg
RA of node:       073.5309 deg
Eccentricity:    0.0014238
Arg of perigee:   005.6891 deg
Mean anomaly:     354.4427 deg
Mean motion:   14.10956519 rev/day
Decay rate:       3.56e-06 rev/day^2
Epoch rev:           01258
Checksum:              319

/EX
SB KEPS @ AMSAT  $ORB09127.M
Orbital Elements  09127.MISC

HR AMSAT ORBITAL ELEMENTS FOR MANNED AND MISCELLANEOUS SATELLITES
FROM WA5QGD FORT WORTH,TX May 7, 2009
Send Subscribe/unsubscribe to KEPS at 
http://www.amsat.org/mailman/listinfo/keps
BID: ORB09127.M
TO ALL RADIO AMATEURS BT

Satellite: HUBBLE
Catalog number: 20580
Epoch time:      09127.87873474
Element set:     382
Inclination:      028.4690 deg
RA of node:       005.3534 deg
Eccentricity:    0.0003957
Arg of perigee:   231.4264 deg
Mean anomaly:     128.5969 deg
Mean motion:   15.00480739 rev/day
Decay rate:       2.84e-06 rev/day^2
Epoch rev:           84379
Checksum:              321

Satellite: ISS
Catalog number: 25544
Epoch time:      09127.65900583
Element set:     809
Inclination:      051.6399 deg
RA of node:       154.7480 deg
Eccentricity:    0.0009043
Arg of perigee:   337.3153 deg
Mean anomaly:     121.8352 deg
Mean motion:   15.72618018 rev/day
Decay rate:      7.430e-05 rev/day^2
Epoch rev:           59957
Checksum:              313

Satellite: CO-58
Catalog number: 28895
Epoch time:      09126.73151788
Element set:    0296
Inclination:      098.0662 deg
RA of node:       018.4991 deg
Eccentricity:    0.0018888
Arg of perigee:   115.5105 deg
Mean anomaly:     244.8077 deg
Mean motion:   14.59763351 rev/day
Decay rate:       -3.4e-07 rev/day^2
Epoch rev:           18768
Checksum:              359

Satellite: FALCON
Catalog number: 30776
Epoch time:      09126.92043901
Element set:    0567
Inclination:      035.4346 deg
RA of node:       349.7795 deg
Eccentricity:    0.0002038
Arg of perigee:   304.1472 deg
Mean anomaly:     055.9053 deg
Mean motion:   15.03229676 rev/day
Decay rate:       2.67e-06 rev/day^2
Epoch rev:           11888
Checksum:              308

Satellite: MAST
Catalog number: 31126
Epoch time:      09126.66167764
Element set:     588
Inclination:      097.9917 deg
RA of node:       183.3599 deg
Eccentricity:    0.0095722
Arg of perigee:   049.0836 deg
Mean anomaly:     311.8592 deg
Mean motion:   14.53493002 rev/day
Decay rate:       -6.0e-08 rev/day^2
Epoch rev:           10900
Checksum:              318

Satellite: CAPE1
Catalog number: 31130
Epoch time:      09126.79727308
Element set:     593
Inclination:      097.9942 deg
RA of node:       181.7684 deg
Eccentricity:    0.0103761
Arg of perigee:   054.3424 deg
Mean anomaly:     306.7373 deg
Mean motion:   14.52054104 rev/day
Decay rate:       1.10e-06 rev/day^2
Epoch rev:           10868
Checksum:              291

Satellite: COMPASS
Catalog number: 32787
Epoch time:      09127.85067158
Element set:     350
Inclination:      097.9449 deg
RA of node:       192.0099 deg
Eccentricity:    0.0016230
Arg of perigee:   159.6801 deg
Mean anomaly:     200.5054 deg
Mean motion:   14.81590445 rev/day
Decay rate:        9.2e-07 rev/day^2
Epoch rev:            5547
Checksum:              307

Satellite: AAUSAT2
Catalog number: 32788
Epoch time:      09127.61929357
Element set:     351
Inclination:      097.9442 deg
RA of node:       191.8327 deg
Eccentricity:    0.0016253
Arg of perigee:   160.7106 deg
Mean anomaly:     199.4740 deg
Mean motion:   14.81713520 rev/day
Decay rate:       4.46e-06 rev/day^2
Epoch rev:            5544
Checksum:              311

Satellite: DO-64
Catalog number: 32789
Epoch time:      09127.70793195
Element set:     360
Inclination:      097.9506 deg
RA of node:       192.0586 deg
Eccentricity:    0.0016125
Arg of perigee:   159.1343 deg
Mean anomaly:     201.0524 deg
Mean motion:   14.81685170 rev/day
Decay rate:       3.00e-06 rev/day^2
Epoch rev:            5545
Checksum:              303

Satellite: CO-66
Catalog number: 32791
Epoch time:      09127.41609727
Element set:     342
Inclination:      097.9481 deg
RA of node:       191.6126 deg
Eccentricity:    0.0016420
Arg of perigee:   158.7450 deg
Mean anomaly:     201.4451 deg
Mean motion:   14.81424684 rev/day
Decay rate:       4.43e-06 rev/day^2
Epoch rev:            5537
Checksum:              305

